[
    { "code": "af", "name": "Afghanistan", "flag": "https://flagcdn.com/w320/af.png", "dialCode": "+93" },
    { "code": "al", "name": "Albania", "flag": "https://flagcdn.com/w320/al.png", "dialCode": "+355" },
    { "code": "dz", "name": "Algeria", "flag": "https://flagcdn.com/w320/dz.png", "dialCode": "+213" },
    { "code": "as", "name": "American Samoa", "flag": "https://flagcdn.com/w320/as.png", "dialCode": "+1-684" },
    { "code": "ad", "name": "Andorra", "flag": "https://flagcdn.com/w320/ad.png", "dialCode": "+376" },
    { "code": "ao", "name": "Angola", "flag": "https://flagcdn.com/w320/ao.png", "dialCode": "+244" },
    { "code": "ai", "name": "Anguilla", "flag": "https://flagcdn.com/w320/ai.png", "dialCode": "+1-264" },
    { "code": "ag", "name": "Antigua and Barbuda", "flag": "https://flagcdn.com/w320/ag.png", "dialCode": "+1-268" },
    { "code": "ar", "name": "Argentina", "flag": "https://flagcdn.com/w320/ar.png", "dialCode": "+54" },
    { "code": "am", "name": "Armenia", "flag": "https://flagcdn.com/w320/am.png", "dialCode": "+374" },
    { "code": "aw", "name": "Aruba", "flag": "https://flagcdn.com/w320/aw.png", "dialCode": "+297" },
    { "code": "au", "name": "Australia", "flag": "https://flagcdn.com/w320/au.png", "dialCode": "+61" },
    { "code": "at", "name": "Austria", "flag": "https://flagcdn.com/w320/at.png", "dialCode": "+43" },
    { "code": "az", "name": "Azerbaijan", "flag": "https://flagcdn.com/w320/az.png", "dialCode": "+994" },
    { "code": "bs", "name": "Bahamas", "flag": "https://flagcdn.com/w320/bs.png", "dialCode": "+1-242" },
    { "code": "bh", "name": "Bahrain", "flag": "https://flagcdn.com/w320/bh.png", "dialCode": "+973" },
    { "code": "bd", "name": "Bangladesh", "flag": "https://flagcdn.com/w320/bd.png", "dialCode": "+880" },
    { "code": "bb", "name": "Barbados", "flag": "https://flagcdn.com/w320/bb.png", "dialCode": "+1-246" },
    { "code": "by", "name": "Belarus", "flag": "https://flagcdn.com/w320/by.png", "dialCode": "+375" },
    { "code": "be", "name": "Belgium", "flag": "https://flagcdn.com/w320/be.png", "dialCode": "+32" },
    { "code": "bz", "name": "Belize", "flag": "https://flagcdn.com/w320/bz.png", "dialCode": "+501" },
    { "code": "bj", "name": "Benin", "flag": "https://flagcdn.com/w320/bj.png", "dialCode": "+229" },
    { "code": "bm", "name": "Bermuda", "flag": "https://flagcdn.com/w320/bm.png", "dialCode": "+1-441" },
    { "code": "bt", "name": "Bhutan", "flag": "https://flagcdn.com/w320/bt.png", "dialCode": "+975" },
    { "code": "bo", "name": "Bolivia", "flag": "https://flagcdn.com/w320/bo.png", "dialCode": "+591" },
    { "code": "ba", "name": "Bosnia and Herzegovina", "flag": "https://flagcdn.com/w320/ba.png", "dialCode": "+387" },
    { "code": "bw", "name": "Botswana", "flag": "https://flagcdn.com/w320/bw.png", "dialCode": "+267" },
    { "code": "br", "name": "Brazil", "flag": "https://flagcdn.com/w320/br.png", "dialCode": "+55" },
    { "code": "bn", "name": "Brunei Darussalam", "flag": "https://flagcdn.com/w320/bn.png", "dialCode": "+673" },
    { "code": "bg", "name": "Bulgaria", "flag": "https://flagcdn.com/w320/bg.png", "dialCode": "+359" },
    { "code": "bf", "name": "Burkina Faso", "flag": "https://flagcdn.com/w320/bf.png", "dialCode": "+226" },
    { "code": "bi", "name": "Burundi", "flag": "https://flagcdn.com/w320/bi.png", "dialCode": "+257" },
    { "code": "cv", "name": "Cabo Verde", "flag": "https://flagcdn.com/w320/cv.png", "dialCode": "+238" },
    { "code": "kh", "name": "Cambodia", "flag": "https://flagcdn.com/w320/kh.png", "dialCode": "+855" },
    { "code": "cm", "name": "Cameroon", "flag": "https://flagcdn.com/w320/cm.png", "dialCode": "+237" },
    { "code": "ca", "name": "Canada", "flag": "https://flagcdn.com/w320/ca.png", "dialCode": "+1" },
    { "code": "ky", "name": "Cayman Islands", "flag": "https://flagcdn.com/w320/ky.png", "dialCode": "+1-345" },
    { "code": "cf", "name": "Central African Republic", "flag": "https://flagcdn.com/w320/cf.png", "dialCode": "+236" },
    { "code": "td", "name": "Chad", "flag": "https://flagcdn.com/w320/td.png", "dialCode": "+235" },
    { "code": "cl", "name": "Chile", "flag": "https://flagcdn.com/w320/cl.png", "dialCode": "+56" },
    { "code": "cn", "name": "China", "flag": "https://flagcdn.com/w320/cn.png", "dialCode": "+86" },
    { "code": "co", "name": "Colombia", "flag": "https://flagcdn.com/w320/co.png", "dialCode": "+57" },
    { "code": "cr", "name": "Costa Rica", "flag": "https://flagcdn.com/w320/cr.png", "dialCode": "+506" },
    { "code": "hr", "name": "Croatia", "flag": "https://flagcdn.com/w320/hr.png", "dialCode": "+385" },
    { "code": "cu", "name": "Cuba", "flag": "https://flagcdn.com/w320/cu.png", "dialCode": "+53" },
    { "code": "cy", "name": "Cyprus", "flag": "https://flagcdn.com/w320/cy.png", "dialCode": "+357" },
    { "code": "cz", "name": "Czech Republic", "flag": "https://flagcdn.com/w320/cz.png", "dialCode": "+420" },
    { "code": "dk", "name": "Denmark", "flag": "https://flagcdn.com/w320/dk.png", "dialCode": "+45" },
    { "code": "dj", "name": "Djibouti", "flag": "https://flagcdn.com/w320/dj.png", "dialCode": "+253" },
    { "code": "dm", "name": "Dominica", "flag": "https://flagcdn.com/w320/dm.png", "dialCode": "+1-767" },
    { "code": "do", "name": "Dominican Republic", "flag": "https://flagcdn.com/w320/do.png", "dialCode": "+1-809" },
    { "code": "ie", "name": "Ireland", "flag": "https://flagcdn.com/w320/ie.png", "dialCode": "+353" },
    { "code": "il", "name": "Israel", "flag": "https://flagcdn.com/w320/il.png", "dialCode": "+972" },
    { "code": "it", "name": "Italy", "flag": "https://flagcdn.com/w320/it.png", "dialCode": "+39" },
    { "code": "jm", "name": "Jamaica", "flag": "https://flagcdn.com/w320/jm.png", "dialCode": "+1-876" },
    { "code": "jp", "name": "Japan", "flag": "https://flagcdn.com/w320/jp.png", "dialCode": "+81" },
    { "code": "je", "name": "Jersey", "flag": "https://flagcdn.com/w320/je.png", "dialCode": "+44" },
    { "code": "jo", "name": "Jordan", "flag": "https://flagcdn.com/w320/jo.png", "dialCode": "+962" },
    { "code": "kz", "name": "Kazakhstan", "flag": "https://flagcdn.com/w320/kz.png", "dialCode": "+7" },
    { "code": "ke", "name": "Kenya", "flag": "https://flagcdn.com/w320/ke.png", "dialCode": "+254" },
    { "code": "ki", "name": "Kiribati", "flag": "https://flagcdn.com/w320/ki.png", "dialCode": "+686" },
    { "code": "kw", "name": "Kuwait", "flag": "https://flagcdn.com/w320/kw.png", "dialCode": "+965" },
    { "code": "kg", "name": "Kyrgyzstan", "flag": "https://flagcdn.com/w320/kg.png", "dialCode": "+996" },
    { "code": "la", "name": "Laos", "flag": "https://flagcdn.com/w320/la.png", "dialCode": "+856" },
    { "code": "lv", "name": "Latvia", "flag": "https://flagcdn.com/w320/lv.png", "dialCode": "+371" },
    { "code": "mq", "name": "Martinique", "flag": "https://flagcdn.com/w320/mq.png", "dialCode": "+596" },
    { "code": "mr", "name": "Mauritania", "flag": "https://flagcdn.com/w320/mr.png", "dialCode": "+222" },
    { "code": "mu", "name": "Mauritius", "flag": "https://flagcdn.com/w320/mu.png", "dialCode": "+230" },
    { "code": "yt", "name": "Mayotte", "flag": "https://flagcdn.com/w320/yt.png", "dialCode": "+262" },
    { "code": "mx", "name": "Mexico", "flag": "https://flagcdn.com/w320/mx.png", "dialCode": "+52" },
    { "code": "fm", "name": "Micronesia", "flag": "https://flagcdn.com/w320/fm.png", "dialCode": "+691" },
    { "code": "md", "name": "Moldova", "flag": "https://flagcdn.com/w320/md.png", "dialCode": "+373" },
    { "code": "mc", "name": "Monaco", "flag": "https://flagcdn.com/w320/mc.png", "dialCode": "+377" },
    { "code": "mn", "name": "Mongolia", "flag": "https://flagcdn.com/w320/mn.png", "dialCode": "+976" },
    { "code": "me", "name": "Montenegro", "flag": "https://flagcdn.com/w320/me.png", "dialCode": "+382" },
    { "code": "ms", "name": "Montserrat", "flag": "https://flagcdn.com/w320/ms.png", "dialCode": "+1" },
    { "code": "ma", "name": "Morocco", "flag": "https://flagcdn.com/w320/ma.png", "dialCode": "+212" },
    { "code": "mz", "name": "Mozambique", "flag": "https://flagcdn.com/w320/mz.png", "dialCode": "+258" },
    { "code": "mm", "name": "Myanmar (Burma)", "flag": "https://flagcdn.com/w320/mm.png", "dialCode": "+95" },
    { "code": "na", "name": "Namibia", "flag": "https://flagcdn.com/w320/na.png", "dialCode": "+264" },
    { "code": "np", "name": "Nepal", "flag": "https://flagcdn.com/w320/np.png", "dialCode": "+977" },
    { "code": "nl", "name": "Netherlands", "flag": "https://flagcdn.com/w320/nl.png", "dialCode": "+31" },
    { "code": "nc", "name": "New Caledonia", "flag": "https://flagcdn.com/w320/nc.png", "dialCode": "+687" },
    { "code": "nz", "name": "New Zealand", "flag": "https://flagcdn.com/w320/nz.png", "dialCode": "+64" },
    { "code": "ni", "name": "Nicaragua", "flag": "https://flagcdn.com/w320/ni.png", "dialCode": "+505" },
    { "code": "ne", "name": "Niger", "flag": "https://flagcdn.com/w320/ne.png", "dialCode": "+227" },
    { "code": "ng", "name": "Nigeria", "flag": "https://flagcdn.com/w320/ng.png", "dialCode": "+234" },
    { "code": "nu", "name": "Niue", "flag": "https://flagcdn.com/w320/nu.png", "dialCode": "+683" },
    { "code": "nf", "name": "Norfolk Island", "flag": "https://flagcdn.com/w320/nf.png", "dialCode": "+672" },
    { "code": "kp", "name": "North Korea", "flag": "https://flagcdn.com/w320/kp.png", "dialCode": "+850" },
    { "code": "mp", "name": "Northern Mariana Islands", "flag": "https://flagcdn.com/w320/mp.png", "dialCode": "+1" },
    { "code": "no", "name": "Norway", "flag": "https://flagcdn.com/w320/no.png", "dialCode": "+47" },
    { "code": "om", "name": "Oman", "flag": "https://flagcdn.com/w320/om.png", "dialCode": "+968" },
    { "code": "pk", "name": "Pakistan", "flag": "https://flagcdn.com/w320/pk.png", "dialCode": "+92" },
    { "code": "pw", "name": "Palau", "flag": "https://flagcdn.com/w320/pw.png", "dialCode": "+680" },
    { "code": "pa", "name": "Panama", "flag": "https://flagcdn.com/w320/pa.png", "dialCode": "+507" },
    { "code": "pg", "name": "Papua New Guinea", "flag": "https://flagcdn.com/w320/pg.png", "dialCode": "+675" },
    { "code": "py", "name": "Paraguay", "flag": "https://flagcdn.com/w320/py.png", "dialCode": "+595" },
    { "code": "pe", "name": "Peru", "flag": "https://flagcdn.com/w320/pe.png", "dialCode": "+51" },
    { "code": "ph", "name": "Philippines", "flag": "https://flagcdn.com/w320/ph.png", "dialCode": "+63" },
    { "code": "pl", "name": "Poland", "flag": "https://flagcdn.com/w320/pl.png", "dialCode": "+48" },
    { "code": "pt", "name": "Portugal", "flag": "https://flagcdn.com/w320/pt.png", "dialCode": "+351" },
    { "code": "pr", "name": "Puerto Rico", "flag": "https://flagcdn.com/w320/pr.png", "dialCode": "+1" },
    { "code": "qa", "name": "Qatar", "flag": "https://flagcdn.com/w320/qa.png", "dialCode": "+974" },
    { "code": "re", "name": "Réunion", "flag": "https://flagcdn.com/w320/re.png", "dialCode": "+262" },
    { "code": "ro", "name": "Romania", "flag": "https://flagcdn.com/w320/ro.png", "dialCode": "+40" },
    { "code": "ru", "name": "Russia", "flag": "https://flagcdn.com/w320/ru.png", "dialCode": "+7" },
    { "code": "rw", "name": "Rwanda", "flag": "https://flagcdn.com/w320/rw.png", "dialCode": "+250" },
    { "code": "bl", "name": "Saint Barthélemy", "flag": "https://flagcdn.com/w320/bl.png", "dialCode": "+590" },
    { "code": "sh", "name": "Saint Helena", "flag": "https://flagcdn.com/w320/sh.png", "dialCode": "+290" },
    { "code": "kn", "name": "Saint Kitts and Nevis", "flag": "https://flagcdn.com/w320/kn.png", "dialCode": "+1" },
    { "code": "lc", "name": "Saint Lucia", "flag": "https://flagcdn.com/w320/lc.png", "dialCode": "+1" },
    { "code": "mf", "name": "Saint Martin", "flag": "https://flagcdn.com/w320/mf.png", "dialCode": "+590" },
    { "code": "pm", "name": "Saint Pierre and Miquelon", "flag": "https://flagcdn.com/w320/pm.png", "dialCode": "+508" },
    { "code": "vc", "name": "Saint Vincent and the Grenadines", "flag": "https://flagcdn.com/w320/vc.png", "dialCode": "+1" },
    { "code": "ws", "name": "Samoa", "flag": "https://flagcdn.com/w320/ws.png", "dialCode": "+685" },
    { "code": "sm", "name": "San Marino", "flag": "https://flagcdn.com/w320/sm.png", "dialCode": "+378" },
    { "code": "sa", "name": "Saudi Arabia", "flag": "https://flagcdn.com/w320/sa.png", "dialCode": "+966" },
    { "code": "sn", "name": "Senegal", "flag": "https://flagcdn.com/w320/sn.png", "dialCode": "+221" },
    { "code": "rs", "name": "Serbia", "flag": "https://flagcdn.com/w320/rs.png", "dialCode": "+381" },
    { "code": "sc", "name": "Seychelles", "flag": "https://flagcdn.com/w320/sc.png", "dialCode": "+248" },
    { "code": "sl", "name": "Sierra Leone", "flag": "https://flagcdn.com/w320/sl.png", "dialCode": "+232" },
    { "code": "sg", "name": "Singapore", "flag": "https://flagcdn.com/w320/sg.png", "dialCode": "+65" },
    { "code": "sx", "name": "Sint Maarten", "flag": "https://flagcdn.com/w320/sx.png", "dialCode": "+1" },
    { "code": "sk", "name": "Slovakia", "flag": "https://flagcdn.com/w320/sk.png", "dialCode": "+421" },
    { "code": "si", "name": "Slovenia", "flag": "https://flagcdn.com/w320/si.png", "dialCode": "+386" },
    { "code": "sb", "name": "Solomon Islands", "flag": "https://flagcdn.com/w320/sb.png", "dialCode": "+677" },
    { "code": "so", "name": "Somalia", "flag": "https://flagcdn.com/w320/so.png", "dialCode": "+252" },
    { "code": "za", "name": "South Africa", "flag": "https://flagcdn.com/w320/za.png", "dialCode": "+27" },
    { "code": "gs", "name": "South Georgia and the South Sandwich Islands", "flag": "https://flagcdn.com/w320/gs.png", "dialCode": "+500" },
    { "code": "kr", "name": "South Korea", "flag": "https://flagcdn.com/w320/kr.png", "dialCode": "+82" },
    { "code": "es", "name": "Spain", "flag": "https://flagcdn.com/w320/es.png", "dialCode": "+34" },
    { "code": "lk", "name": "Sri Lanka", "flag": "https://flagcdn.com/w320/lk.png", "dialCode": "+94" },
    { "code": "sd", "name": "Sudan", "flag": "https://flagcdn.com/w320/sd.png", "dialCode": "+249" },
    { "code": "sr", "name": "Suriname", "flag": "https://flagcdn.com/w320/sr.png", "dialCode": "+597" },
    { "code": "sj", "name": "Svalbard and Jan Mayen", "flag": "https://flagcdn.com/w320/sj.png", "dialCode": "+47" },
    { "code": "sz", "name": "Eswatini", "flag": "https://flagcdn.com/w320/sz.png", "dialCode": "+268" },
    { "code": "se", "name": "Sweden", "flag": "https://flagcdn.com/w320/se.png", "dialCode": "+46" },
    { "code": "ch", "name": "Switzerland", "flag": "https://flagcdn.com/w320/ch.png", "dialCode": "+41" },
    { "code": "sy", "name": "Syria", "flag": "https://flagcdn.com/w320/sy.png", "dialCode": "+963" },
    { "code": "tw", "name": "Taiwan", "flag": "https://flagcdn.com/w320/tw.png", "dialCode": "+886" },
    { "code": "tj", "name": "Tajikistan", "flag": "https://flagcdn.com/w320/tj.png", "dialCode": "+992" },
    { "code": "tz", "name": "Tanzania", "flag": "https://flagcdn.com/w320/tz.png", "dialCode": "+255" },
    { "code": "th", "name": "Thailand", "flag": "https://flagcdn.com/w320/th.png", "dialCode": "+66" },
    { "code": "tl", "name": "Timor-Leste", "flag": "https://flagcdn.com/w320/tl.png", "dialCode": "+670" },
    { "code": "tg", "name": "Togo", "flag": "https://flagcdn.com/w320/tg.png", "dialCode": "+228" },
    { "code": "tk", "name": "Tokelau", "flag": "https://flagcdn.com/w320/tk.png", "dialCode": "+690" },
    { "code": "to", "name": "Tonga", "flag": "https://flagcdn.com/w320/to.png", "dialCode": "+676" },
    { "code": "tt", "name": "Trinidad and Tobago", "flag": "https://flagcdn.com/w320/tt.png", "dialCode": "+1-868" },
    { "code": "tn", "name": "Tunisia", "flag": "https://flagcdn.com/w320/tn.png", "dialCode": "+216" },
    { "code": "tr", "name": "Turkey", "flag": "https://flagcdn.com/w320/tr.png", "dialCode": "+90" },
    { "code": "tm", "name": "Turkmenistan", "flag": "https://flagcdn.com/w320/tm.png", "dialCode": "+993" },
    { "code": "tc", "name": "Turks and Caicos Islands", "flag": "https://flagcdn.com/w320/tc.png", "dialCode": "+1-649" },
    { "code": "tv", "name": "Tuvalu", "flag": "https://flagcdn.com/w320/tv.png", "dialCode": "+688" },
    { "code": "ug", "name": "Uganda", "flag": "https://flagcdn.com/w320/ug.png", "dialCode": "+256" },
    { "code": "ua", "name": "Ukraine", "flag": "https://flagcdn.com/w320/ua.png", "dialCode": "+380" },
    { "code": "ae", "name": "United Arab Emirates", "flag": "https://flagcdn.com/w320/ae.png", "dialCode": "+971" },
    { "code": "gb", "name": "United Kingdom", "flag": "https://flagcdn.com/w320/gb.png", "dialCode": "+44" },
    { "code": "us", "name": "United States", "flag": "https://flagcdn.com/w320/us.png", "dialCode": "+1" },
    { "code": "uy", "name": "Uruguay", "flag": "https://flagcdn.com/w320/uy.png", "dialCode": "+598" },
    { "code": "uz", "name": "Uzbekistan", "flag": "https://flagcdn.com/w320/uz.png", "dialCode": "+998" },
    { "code": "vu", "name": "Vanuatu", "flag": "https://flagcdn.com/w320/vu.png", "dialCode": "+678" },
    { "code": "ve", "name": "Venezuela", "flag": "https://flagcdn.com/w320/ve.png", "dialCode": "+58" },
    { "code": "vn", "name": "Vietnam", "flag": "https://flagcdn.com/w320/vn.png", "dialCode": "+84" },
    { "code": "wf", "name": "Wallis and Futuna", "flag": "https://flagcdn.com/w320/wf.png", "dialCode": "+681" },
    { "code": "eh", "name": "Western Sahara", "flag": "https://flagcdn.com/w320/eh.png", "dialCode": "+212" },
    { "code": "ye", "name": "Yemen", "flag": "https://flagcdn.com/w320/ye.png", "dialCode": "+967" },
    { "code": "zm", "name": "Zambia", "flag": "https://flagcdn.com/w320/zm.png", "dialCode": "+260" },
    { "code": "zw", "name": "Zimbabwe", "flag": "https://flagcdn.com/w320/zw.png", "dialCode": "+263" }
]
